{
  "type": "FeatureCollection",
  "features": [
    {
      "type": "Feature",
      "properties": {
        "norad_id": 66502,
        "name": "STARLINK-35922",
        "group": "last-30-days",
        "lat": -7.061033303540814,
        "lon": -26.804128542720978,
        "alt_km": 415.65320384217193,
        "timestamp": "2025-12-09T05:43:19.509047+00:00",
        "meta_object_name": "STARLINK-35922",
        "meta_object_id": "2025-263T",
        "meta_epoch": "2025-12-08T20:00:01.999008",
        "meta_mean_motion": 15.50581949,
        "meta_eccentricity": 0.000162,
        "meta_inclination": 43.0002,
        "meta_ra_of_asc_node": 147.9271,
        "meta_arg_of_pericenter": 272.7111,
        "meta_mean_anomaly": 173.8151,
        "meta_ephemeris_type": 0,
        "meta_classification_type": "U",
        "meta_norad_cat_id": 66502,
        "meta_element_set_no": 999,
        "meta_rev_at_epoch": 500,
        "meta_bstar": -0.0005721,
        "meta_mean_motion_dot": -0.00033763,
        "meta_mean_motion_ddot": 0,
        "tle_line1": "1 66502U 25263T   25342.83335647 -.00033763  00000+0 -57210-3 0  9993",
        "tle_line2": "2 66502  43.0002 147.9271 0001620 272.7111 173.8151 15.50581949  5009"
      },
      "geometry": {
        "type": "Point",
        "coordinates": [
          -26.804128542720978,
          -7.061033303540814
        ]
      }
    },
    {
      "type": "Feature",
      "properties": {
        "norad_id": 66503,
        "name": "STARLINK-35917",
        "group": "last-30-days",
        "lat": -9.633571735386953,
        "lon": -23.95904853030926,
        "alt_km": 416.07607604482473,
        "timestamp": "2025-12-09T05:43:19.509058+00:00",
        "meta_object_name": "STARLINK-35917",
        "meta_object_id": "2025-263U",
        "meta_epoch": "2025-12-08T14:00:01.999872",
        "meta_mean_motion": 15.50561937,
        "meta_eccentricity": 0.00016903,
        "meta_inclination": 43,
        "meta_ra_of_asc_node": 149.3782,
        "meta_arg_of_pericenter": 286.6995,
        "meta_mean_anomaly": 206.4484,
        "meta_ephemeris_type": 0,
        "meta_classification_type": "U",
        "meta_norad_cat_id": 66503,
        "meta_element_set_no": 999,
        "meta_rev_at_epoch": 496,
        "meta_bstar": 0.00035913324,
        "meta_mean_motion_dot": 0.0002077,
        "meta_mean_motion_ddot": 0,
        "tle_line1": "1 66503U 25263U   25342.58335648  .00020770  00000+0  35913-3 0  9995",
        "tle_line2": "2 66503  43.0000 149.3782 0001690 286.6995 206.4484 15.50561937  4963"
      },
      "geometry": {
        "type": "Point",
        "coordinates": [
          -23.95904853030926,
          -9.633571735386953
        ]
      }
    },
    {
      "type": "Feature",
      "properties": {
        "norad_id": 66504,
        "name": "STARLINK-35916",
        "group": "last-30-days",
        "lat": 26.498904345232482,
        "lon": 179.1527506928195,
        "alt_km": 440.24438469208144,
        "timestamp": "2025-12-09T05:43:19.509068+00:00",
        "meta_object_name": "STARLINK-35916",
        "meta_object_id": "2025-263V",
        "meta_epoch": "2025-12-08T20:00:01.999008",
        "meta_mean_motion": 15.40631839,
        "meta_eccentricity": 0.0001359,
        "meta_inclination": 43.0006,
        "meta_ra_of_asc_node": 149.1431,
        "meta_arg_of_pericenter": 278.9747,
        "meta_mean_anomaly": 32.6264,
        "meta_ephemeris_type": 0,
        "meta_classification_type": "U",
        "meta_norad_cat_id": 66504,
        "meta_element_set_no": 999,
        "meta_rev_at_epoch": 500,
        "meta_bstar": 0.0025078,
        "meta_mean_motion_dot": 0.00105678,
        "meta_mean_motion_ddot": 0,
        "tle_line1": "1 66504U 25263V   25342.83335647  .00105678  00000+0  25078-2 0  9994",
        "tle_line2": "2 66504  43.0006 149.1431 0001359 278.9747  32.6264 15.40631839  5009"
      },
      "geometry": {
        "type": "Point",
        "coordinates": [
          179.1527506928195,
          26.498904345232482
        ]
      }
    },
    {
      "type": "Feature",
      "properties": {
        "norad_id": 66505,
        "name": "STARLINK-34766",
        "group": "last-30-days",
        "lat": -4.465563680334559,
        "lon": -29.625608828253597,
        "alt_km": 415.80988862912636,
        "timestamp": "2025-12-09T05:43:19.509078+00:00",
        "meta_object_name": "STARLINK-34766",
        "meta_object_id": "2025-263W",
        "meta_epoch": "2025-12-08T20:00:01.999008",
        "meta_mean_motion": 15.50617033,
        "meta_eccentricity": 0.0001802,
        "meta_inclination": 43.0003,
        "meta_ra_of_asc_node": 147.9368,
        "meta_arg_of_pericenter": 290.7919,
        "meta_mean_anomaly": 151.882,
        "meta_ephemeris_type": 0,
        "meta_classification_type": "U",
        "meta_norad_cat_id": 66505,
        "meta_element_set_no": 999,
        "meta_rev_at_epoch": 500,
        "meta_bstar": -0.0013845,
        "meta_mean_motion_dot": -0.00080843,
        "meta_mean_motion_ddot": 0,
        "tle_line1": "1 66505U 25263W   25342.83335647 -.00080843  00000+0 -13845-2 0  9992",
        "tle_line2": "2 66505  43.0003 147.9368 0001802 290.7919 151.8820 15.50617033  5001"
      },
      "geometry": {
        "type": "Point",
        "coordinates": [
          -29.625608828253597,
          -4.465563680334559
        ]
      }
    },
    {
      "type": "Feature",
      "properties": {
        "norad_id": 66506,
        "name": "STARLINK-34765",
        "group": "last-30-days",
        "lat": -5.765110240657685,
        "lon": -28.21731827412391,
        "alt_km": 415.90728198770194,
        "timestamp": "2025-12-09T05:43:19.509089+00:00",
        "meta_object_name": "STARLINK-34765",
        "meta_object_id": "2025-263X",
        "meta_epoch": "2025-12-08T20:00:01.999008",
        "meta_mean_motion": 15.50606389,
        "meta_eccentricity": 0.0001684,
        "meta_inclination": 43.0003,
        "meta_ra_of_asc_node": 147.9327,
        "meta_arg_of_pericenter": 291.8928,
        "meta_mean_anomaly": 152.6981,
        "meta_ephemeris_type": 0,
        "meta_classification_type": "U",
        "meta_norad_cat_id": 66506,
        "meta_element_set_no": 999,
        "meta_rev_at_epoch": 500,
        "meta_bstar": -0.0010211,
        "meta_mean_motion_dot": -0.0005985,
        "meta_mean_motion_ddot": 0,
        "tle_line1": "1 66506U 25263X   25342.83335647 -.00059850  00000+0 -10211-2 0  9991",
        "tle_line2": "2 66506  43.0003 147.9327 0001684 291.8928 152.6981 15.50606389  5006"
      },
      "geometry": {
        "type": "Point",
        "coordinates": [
          -28.21731827412391,
          -5.765110240657685
        ]
      }
    },
    {
      "type": "Feature",
      "properties": {
        "norad_id": 66507,
        "name": "STARLINK-34767",
        "group": "last-30-days",
        "lat": -8.356275296867995,
        "lon": -25.378982826273933,
        "alt_km": 415.77704761367113,
        "timestamp": "2025-12-09T05:43:19.509099+00:00",
        "meta_object_name": "STARLINK-34767",
        "meta_object_id": "2025-263Y",
        "meta_epoch": "2025-12-08T20:00:01.999008",
        "meta_mean_motion": 15.50577479,
        "meta_eccentricity": 0.0001387,
        "meta_inclination": 43.0001,
        "meta_ra_of_asc_node": 147.9215,
        "meta_arg_of_pericenter": 272.3236,
        "meta_mean_anomaly": 176.1238,
        "meta_ephemeris_type": 0,
        "meta_classification_type": "U",
        "meta_norad_cat_id": 66507,
        "meta_element_set_no": 999,
        "meta_rev_at_epoch": 500,
        "meta_bstar": -0.00047688,
        "meta_mean_motion_dot": -0.00028215,
        "meta_mean_motion_ddot": 0,
        "tle_line1": "1 66507U 25263Y   25342.83335647 -.00028215  00000+0 -47688-3 0  9992",
        "tle_line2": "2 66507  43.0001 147.9215 0001387 272.3236 176.1238 15.50577479  5000"
      },
      "geometry": {
        "type": "Point",
        "coordinates": [
          -25.378982826273933,
          -8.356275296867995
        ]
      }
    },
    {
      "type": "Feature",
      "properties": {
        "norad_id": 66508,
        "name": "STARLINK-35608",
        "group": "last-30-days",
        "lat": -12.197204928506268,
        "lon": -21.048865379365058,
        "alt_km": 416.52744604750114,
        "timestamp": "2025-12-09T05:43:19.509109+00:00",
        "meta_object_name": "STARLINK-35608",
        "meta_object_id": "2025-263Z",
        "meta_epoch": "2025-12-08T20:00:01.999008",
        "meta_mean_motion": 15.50635726,
        "meta_eccentricity": 0.0001747,
        "meta_inclination": 43.0003,
        "meta_ra_of_asc_node": 147.9084,
        "meta_arg_of_pericenter": 296.9283,
        "meta_mean_anomaly": 157.2209,
        "meta_ephemeris_type": 0,
        "meta_classification_type": "U",
        "meta_norad_cat_id": 66508,
        "meta_element_set_no": 999,
        "meta_rev_at_epoch": 500,
        "meta_bstar": -0.0015125,
        "meta_mean_motion_dot": -0.00088261,
        "meta_mean_motion_ddot": 0,
        "tle_line1": "1 66508U 25263Z   25342.83335647 -.00088261  00000+0 -15125-2 0  9990",
        "tle_line2": "2 66508  43.0003 147.9084 0001747 296.9283 157.2209 15.50635726  5009"
      },
      "geometry": {
        "type": "Point",
        "coordinates": [
          -21.048865379365058,
          -12.197204928506268
        ]
      }
    }
  ]
}